[{"OBJECT_NAME":"FLOCK 4G-18","OBJECT_ID":"2025-009BZ","EPOCH":"2026-03-09T04:35:14.656704","MEAN_MOTION":15.27241676,"ECCENTRICITY":0.00041001,"INCLINATION":97.4054,"RA_OF_ASC_NODE":150.5008,"ARG_OF_PERICENTER":335.7331,"MEAN_ANOMALY":24.3715,"EPHEMERIS_TYPE":0,"CLASSIFICATION_TYPE":"U","NORAD_CAT_ID":62680,"ELEMENT_SET_NO":999,"REV_AT_EPOCH":12126,"BSTAR":0.0004431856,"MEAN_MOTION_DOT":0.00011766,"MEAN_MOTION_DDOT":0},{"OBJECT_NAME":"SL-24 DEB","OBJECT_ID":"2008-040G","EPOCH":"2026-03-09T18:31:01.084512","MEAN_MOTION":15.22675803,"ECCENTRICITY":0.00142718,"INCLINATION":97.9814,"RA_OF_ASC_NODE":3.5579,"ARG_OF_PERICENTER":81.931,"MEAN_ANOMALY":278.3543,"EPHEMERIS_TYPE":0,"CLASSIFICATION_TYPE":"U","NORAD_CAT_ID":33318,"ELEMENT_SET_NO":999,"REV_AT_EPOCH":95458,"BSTAR":0.0007155905,"MEAN_MOTION_DOT":0.00016658,"MEAN_MOTION_DDOT":0}]
